{"type": "FeatureCollection", "features": [ {"type": "Feature", "properties": {"norad_id": 65304, "name": "DRAGON CRS-33", "group": "stations", "lat": 31.481713617969497, "lon": 132.52640452040654, "alt_km": 414.85307272910086, "timestamp": "2025-12-20T14:38:00.718996+00:00", "meta": {"OBJECT_NAME": "DRAGON CRS-33", "OBJECT_ID": "2025-186A", "EPOCH": "2025-12-20T05:10:04.568160", "MEAN_MOTION": 15.49679666, "ECCENTRICITY": 0.00031985, "INCLINATION": 51.6321, "RA_OF_ASC_NODE": 105.4589, "ARG_OF_PERICENTER": 275.1086, "MEAN_ANOMALY": 84.9538, "EPHEMERIS_TYPE": 0, "CLASSIFICATION_TYPE": "U", "NORAD_CAT_ID": 65304, "ELEMENT_SET_NO": 999, "REV_AT_EPOCH": 11, "BSTAR": 0.00013176766, "MEAN_MOTION_DOT": 6.989e-05, "MEAN_MOTION_DDOT": 0}, "tle": {"line1": "1 65304U 25186A   25354.21533065  .00006989  00000+0  13177-3 0  9997", "line2": "2 65304  51.6321 105.4589 0003198 275.1086  84.9538 15.49679666   118"}}, "geometry": {"type": "Point", "coordinates": [132.52640452040654, 31.481713617969497]}}, {"type": "Feature", "properties": {"norad_id": 65586, "name": "PROGRESS-MS 32", "group": "stations", "lat": 31.48171406118319, "lon": 132.52640507196506, "alt_km": 414.8530726774625, "timestamp": "2025-12-20T14:38:00.719006+00:00", "meta": {"OBJECT_NAME": "PROGRESS-MS 32", "OBJECT_ID": "2025-204A", "EPOCH": "2025-12-20T05:10:04.568160", "MEAN_MOTION": 15.49679666, "ECCENTRICITY": 0.00031985, "INCLINATION": 51.6321, "RA_OF_ASC_NODE": 105.4589, "ARG_OF_PERICENTER": 275.1086, "MEAN_ANOMALY": 84.9538, "EPHEMERIS_TYPE": 0, "CLASSIFICATION_TYPE": "U", "NORAD_CAT_ID": 65586, "ELEMENT_SET_NO": 999, "REV_AT_EPOCH": 27, "BSTAR": 0.00013176766, "MEAN_MOTION_DOT": 6.989e-05, "MEAN_MOTION_DDOT": 0}, "tle": {"line1": "1 65586U 25204A   25354.21533065  .00006989  00000+0  13177-3 0  9990", "line2": "2 65586  51.6321 105.4589 0003198 275.1086  84.9538 15.49679666   277"}}, "geometry": {"type": "Point", "coordinates": [132.52640507196506, 31.48171406118319]}}, {"type": "Feature", "properties": {"norad_id": 65616, "name": "CYGNUS NG-23", "group": "stations", "lat": 31.481714504397427, "lon": 132.52640562352434, "alt_km": 414.85307262582137, "timestamp": "2025-12-20T14:38:00.719016+00:00", "meta": {"OBJECT_NAME": "CYGNUS NG-23", "OBJECT_ID": "2025-208A", "EPOCH": "2025-12-20T05:10:04.568160", "MEAN_MOTION": 15.49679666, "ECCENTRICITY": 0.00031985, "INCLINATION": 51.6321, "RA_OF_ASC_NODE": 105.4589, "ARG_OF_PERICENTER": 275.1086, "MEAN_ANOMALY": 84.9538, "EPHEMERIS_TYPE": 0, "CLASSIFICATION_TYPE": "U", "NORAD_CAT_ID": 65616, "ELEMENT_SET_NO": 999, "REV_AT_EPOCH": 22, "BSTAR": 0.00013176766, "MEAN_MOTION_DOT": 6.989e-05, "MEAN_MOTION_DDOT": 0}, "tle": {"line1": "1 65616U 25208A   25354.21533065  .00006989  00000+0  13177-3 0  9998", "line2": "2 65616  51.6321 105.4589 0003198 275.1086  84.9538 15.49679666   226"}}, "geometry": {"type": "Point", "coordinates": [132.52640562352434, 31.481714504397427]}}, {"type": "Feature", "properties": {"norad_id": 65729, "name": "DRAGONFLY", "group": "stations", "lat": -22.889475966278546, "lon": 75.83640158578763, "alt_km": 344.46170519943007, "timestamp": "2025-12-20T14:38:00.719026+00:00", "meta": {"OBJECT_NAME": "DRAGONFLY", "OBJECT_ID": "1998-067XH", "EPOCH": "2025-12-19T14:23:03.835680", "MEAN_MOTION": 15.741828, "ECCENTRICITY": 0.000728, "INCLINATION": 51.6251, "RA_OF_ASC_NODE": 100.5779, "ARG_OF_PERICENTER": 320.5398, "MEAN_ANOMALY": 39.507, "EPHEMERIS_TYPE": 0, "CLASSIFICATION_TYPE": "U", "NORAD_CAT_ID": 65729, "ELEMENT_SET_NO": 999, "REV_AT_EPOCH": 1424, "BSTAR": 0.00096899, "MEAN_MOTION_DOT": 0.00144123, "MEAN_MOTION_DDOT": 0}, "tle": {"line1": "1 65729U 98067XH  25353.59934995  .00144123  00000+0  96899-3 0  9998", "line2": "2 65729  51.6251 100.5779 0007280 320.5398  39.5070 15.74182800 14248"}}, "geometry": {"type": "Point", "coordinates": [75.83640158578763, -22.889475966278546]}}, {"type": "Feature", "properties": {"norad_id": 65731, "name": "1998-067XK", "group": "stations", "lat": 13.27810478393662, "lon": -93.51793531156515, "alt_km": 368.00736504514316, "timestamp": "2025-12-20T14:38:00.719039+00:00", "meta": {"OBJECT_NAME": "1998-067XK", "OBJECT_ID": "1998-067XK", "EPOCH": "2025-12-20T00:10:02.026560", "MEAN_MOTION": 15.67078773, "ECCENTRICITY": 0.00047639, "INCLINATION": 51.6294, "RA_OF_ASC_NODE": 100.3244, "ARG_OF_PERICENTER": 292.7833, "MEAN_ANOMALY": 67.2659, "EPHEMERIS_TYPE": 0, "CLASSIFICATION_TYPE": "U", "NORAD_CAT_ID": 65731, "ELEMENT_SET_NO": 999, "REV_AT_EPOCH": 1428, "BSTAR": 0.00070175188, "MEAN_MOTION_DOT": 0.00076617, "MEAN_MOTION_DDOT": 0}, "tle": {"line1": "1 65731U 98067XK  25354.00696790  .00076617  00000+0  70175-3 0  9997", "line2": "2 65731  51.6294 100.3244 0004763 292.7833  67.2659 15.67078773 14280"}}, "geometry": {"type": "Point", "coordinates": [-93.51793531156515, 13.27810478393662]}}, {"type": "Feature", "properties": {"norad_id": 65732, "name": "RSP-03", "group": "stations", "lat": -33.05724755491694, "lon": -52.58913856720919, "alt_km": 360.23071727742354, "timestamp": "2025-12-20T14:38:00.719050+00:00", "meta": {"OBJECT_NAME": "RSP-03", "OBJECT_ID": "1998-067XL", "EPOCH": "2025-12-19T10:11:34.022112", "MEAN_MOTION": 15.70283101, "ECCENTRICITY": 0.0005658, "INCLINATION": 51.6265, "RA_OF_ASC_NODE": 102.4221, "ARG_OF_PERICENTER": 294.5755, "MEAN_ANOMALY": 65.4652, "EPHEMERIS_TYPE": 0, "CLASSIFICATION_TYPE": "U", "NORAD_CAT_ID": 65732, "ELEMENT_SET_NO": 999, "REV_AT_EPOCH": 1421, "BSTAR": 0.00084699, "MEAN_MOTION_DOT": 0.00106087, "MEAN_MOTION_DDOT": 0}, "tle": {"line1": "1 65732U 98067XL  25353.42469933  .00106087  00000+0  84699-3 0  9991", "line2": "2 65732  51.6265 102.4221 0005658 294.5755  65.4652 15.70283101 14217"}}, "geometry": {"type": "Point", "coordinates": [-52.58913856720919, -33.05724755491694]}}, {"type": "Feature", "properties": {"norad_id": 65733, "name": "GHS-01", "group": "stations", "lat": -17.026300146685074, "lon": 80.57993124613864, "alt_km": 332.8729387289641, "timestamp": "2025-12-20T14:38:00.719060+00:00", "meta": {"OBJECT_NAME": "GHS-01", "OBJECT_ID": "1998-067XM", "EPOCH": "2025-12-19T17:26:50.755776", "MEAN_MOTION": 15.77819432, "ECCENTRICITY": 0.00083434, "INCLINATION": 51.6273, "RA_OF_ASC_NODE": 99.1864, "ARG_OF_PERICENTER": 325.0318, "MEAN_ANOMALY": 35.0134, "EPHEMERIS_TYPE": 0, "CLASSIFICATION_TYPE": "U", "NORAD_CAT_ID": 65733, "ELEMENT_SET_NO": 999, "REV_AT_EPOCH": 1428, "BSTAR": 0.0010728211, "MEAN_MOTION_DOT": 0.00188446, "MEAN_MOTION_DDOT": 0}, "tle": {"line1": "1 65733U 98067XM  25353.72697634  .00188446  00000+0  10728-2 0  9996", "line2": "2 65733  51.6273  99.1864 0008343 325.0318  35.0134 15.77819432 14285"}}, "geometry": {"type": "Point", "coordinates": [80.57993124613864, -17.026300146685074]}}, {"type": "Feature", "properties": {"norad_id": 65941, "name": "YOTSUBA-KULOVER", "group": "stations", "lat": 50.67541408034777, "lon": -154.89737499152574, "alt_km": 380.2072216690949, "timestamp": "2025-12-20T14:38:00.719071+00:00", "meta": {"OBJECT_NAME": "YOTSUBA-KULOVER", "OBJECT_ID": "1998-067XN", "EPOCH": "2025-12-19T10:32:35.848320", "MEAN_MOTION": 15.60329664, "ECCENTRICITY": 0.00017537, "INCLINATION": 51.6289, "RA_OF_ASC_NODE": 106.2819, "ARG_OF_PERICENTER": 320.2615, "MEAN_ANOMALY": 39.8249, "EPHEMERIS_TYPE": 0, "CLASSIFICATION_TYPE": "U", "NORAD_CAT_ID": 65941, "ELEMENT_SET_NO": 999, "REV_AT_EPOCH": 1090, "BSTAR": 0.0006131661, "MEAN_MOTION_DOT": 0.00050991, "MEAN_MOTION_DDOT": 0}, "tle": {"line1": "1 65941U 98067XN  25353.43930380  .00050991  00000+0  61317-3 0  9997", "line2": "2 65941  51.6289 106.2819 0001753 320.2615  39.8249 15.60329664 10907"}}, "geometry": {"type": "Point", "coordinates": [-154.89737499152574, 50.67541408034777]}}, {"type": "Feature", "properties": {"norad_id": 65942, "name": "BOTAN", "group": "stations", "lat": 5.155155374474062, "lon": -84.61362320286241, "alt_km": 376.1691599144324, "timestamp": "2025-12-20T14:38:00.719081+00:00", "meta": {"OBJECT_NAME": "BOTAN", "OBJECT_ID": "1998-067XP", "EPOCH": "2025-12-20T04:41:49.337088", "MEAN_MOTION": 15.64374422, "ECCENTRICITY": 0.00029517, "INCLINATION": 51.6284, "RA_OF_ASC_NODE": 101.583, "ARG_OF_PERICENTER": 302.22, "MEAN_ANOMALY": 57.8508, "EPHEMERIS_TYPE": 0, "CLASSIFICATION_TYPE": "U", "NORAD_CAT_ID": 65942, "ELEMENT_SET_NO": 999, "REV_AT_EPOCH": 1103, "BSTAR": 0.00087028097, "MEAN_MOTION_DOT": 0.0008541, "MEAN_MOTION_DDOT": 0}, "tle": {"line1": "1 65942U 98067XP  25354.19570992  .00085410  00000+0  87028-3 0  9992", "line2": "2 65942  51.6284 101.5830 0002951 302.2200  57.8508 15.64374422 11034"}}, "geometry": {"type": "Point", "coordinates": [-84.61362320286241, 5.155155374474062]}}, {"type": "Feature", "properties": {"norad_id": 65943, "name": "E-KAGAKU-1", "group": "stations", "lat": 50.756043574452484, "lon": -155.52433259580616, "alt_km": 380.0200635017691, "timestamp": "2025-12-20T14:38:00.719092+00:00", "meta": {"OBJECT_NAME": "E-KAGAKU-1", "OBJECT_ID": "1998-067XQ", "EPOCH": "2025-12-18T08:24:49.666176", "MEAN_MOTION": 15.60193795, "ECCENTRICITY": 0.00013451, "INCLINATION": 51.6302, "RA_OF_ASC_NODE": 111.7666, "ARG_OF_PERICENTER": 249.8249, "MEAN_ANOMALY": 110.26, "EPHEMERIS_TYPE": 0, "CLASSIFICATION_TYPE": "U", "NORAD_CAT_ID": 65943, "ELEMENT_SET_NO": 999, "REV_AT_EPOCH": 1073, "BSTAR": 0.00084619625, "MEAN_MOTION_DOT": 0.00070368, "MEAN_MOTION_DDOT": 0}, "tle": {"line1": "1 65943U 98067XQ  25352.35057484  .00070368  00000+0  84620-3 0  9996", "line2": "2 65943  51.6302 111.7666 0001345 249.8249 110.2600 15.60193795 10732"}}, "geometry": {"type": "Point", "coordinates": [-155.52433259580616, 50.756043574452484]}}]}